start=new Date('2022-06-03T00:00:00.000Z').valueOf();
sats=[{"SITE":"AFETR","EPHEMERIS_TYPE":"0","FILE":"3477983","ELEMENT_SET_NO":"999","REV_AT_EPOCH":"429","MEAN_MOTION":"15.58480453","BSTAR":"-0.00434740000000","GP_ID":"205215050","MEAN_MOTION_DOT":"-0.00324979","COUNTRY_CODE":"US","PERIOD":"92.398","INCLINATION":"53.2163","TLE_LINE1":"1 52458U 22049H   22153.64396603 -.00324979  00000-0 -43474-2 0  9991","MEAN_ANOMALY":"306.0376","ECCENTRICITY":"0.00021010","CENTER_NAME":"EARTH","EPOCH":"2022-06-02T15:27:18.664992","TLE_LINE2":"2 52458  53.2163 132.1483 0002101  54.0833 306.0376 15.58480453  4298","NORAD_CAT_ID":"52458","REF_FRAME":"TEME","OBJECT_ID":"2022-049H","RA_OF_ASC_NODE":"132.1483","OBJECT_NAME":"STARLINK-3898","LAUNCH_DATE":"2022-05-06","RCS_SIZE":"LARGE","SEMIMAJOR_AXIS":"6770.191","CLASSIFICATION_TYPE":"U","APOAPSIS":"393.479","PERIAPSIS":"390.634","TIME_SYSTEM":"UTC","MEAN_MOTION_DDOT":"0.0000000000000","DECAY_DATE":null,"OBJECT_TYPE":"PAYLOAD","ARG_OF_PERICENTER":"54.0833","MEAN_ELEMENT_THEORY":"SGP4"},{"OBJECT_ID":"2022-049J","REF_FRAME":"TEME","RA_OF_ASC_NODE":"135.5275","OBJECT_NAME":"STARLINK-3856","NORAD_CAT_ID":"52459","TLE_LINE2":"2 52459  53.2166 135.5275 0002111  19.9902   1.2071 15.73439006  4332","EPOCH":"2022-06-01T20:00:01.000224","CENTER_NAME":"EARTH","MEAN_ANOMALY":"1.2071","ECCENTRICITY":"0.00021110","ARG_OF_PERICENTER":"19.9902","MEAN_ELEMENT_THEORY":"SGP4","DECAY_DATE":null,"OBJECT_TYPE":"PAYLOAD","MEAN_MOTION_DDOT":"0.0000000000000","TIME_SYSTEM":"UTC","PERIAPSIS":"347.659","RCS_SIZE":"LARGE","LAUNCH_DATE":"2022-05-06","SEMIMAJOR_AXIS":"6727.214","CLASSIFICATION_TYPE":"U","APOAPSIS":"350.499","REV_AT_EPOCH":"433","ELEMENT_SET_NO":"999","EPHEMERIS_TYPE":"0","SITE":"AFETR","FILE":"3476800","INCLINATION":"53.2166","TLE_LINE1":"1 52459U 22049J   22152.83334491 -.00601228  00000-0 -45454-2 0  9994","MEAN_MOTION_DOT":"-0.00601228","PERIOD":"91.519","COUNTRY_CODE":"US","MEAN_MOTION":"15.73439006","BSTAR":"-0.00454540000000","GP_ID":"205141161"},{"ELEMENT_SET_NO":"999","SITE":"AFETR","EPHEMERIS_TYPE":"0","FILE":"3476802","REV_AT_EPOCH":"433","MEAN_MOTION":"15.73148502","GP_ID":"205140717","BSTAR":"0.00063454000000","INCLINATION":"53.2156","TLE_LINE1":"1 52460U 22049K   22152.83334491  .00089189  00000-0  63454-3 0  9991","MEAN_MOTION_DOT":"0.00089189","PERIOD":"91.536","COUNTRY_CODE":"US","EPOCH":"2022-06-01T20:00:01.000224","CENTER_NAME":"EARTH","MEAN_ANOMALY":"358.9417","ECCENTRICITY":"0.00019290","REF_FRAME":"TEME","OBJECT_ID":"2022-049K","OBJECT_NAME":"STARLINK-3865","RA_OF_ASC_NODE":"135.5235","NORAD_CAT_ID":"52460","TLE_LINE2":"2 52460  53.2156 135.5235 0001929  23.5712 358.9417 15.73148502  4339","PERIAPSIS":"348.609","LAUNCH_DATE":"2022-05-06","RCS_SIZE":"LARGE","SEMIMAJOR_AXIS":"6728.042","CLASSIFICATION_TYPE":"U","APOAPSIS":"351.205","ARG_OF_PERICENTER":"23.5712","MEAN_ELEMENT_THEORY":"SGP4","MEAN_MOTION_DDOT":"0.0000000000000","DECAY_DATE":null,"OBJECT_TYPE":"PAYLOAD","TIME_SYSTEM":"UTC"},{"BSTAR":"0.00063402000000","GP_ID":"205140692","MEAN_MOTION":"15.73144291","TLE_LINE1":"1 52461U 22049L   22152.83334491  .00089100  00000-0  63402-3 0  9998","INCLINATION":"53.2161","COUNTRY_CODE":"US","PERIOD":"91.536","MEAN_MOTION_DOT":"0.00089100","ELEMENT_SET_NO":"999","FILE":"3476800","SITE":"AFETR","EPHEMERIS_TYPE":"0","REV_AT_EPOCH":"433","PERIAPSIS":"348.500","APOAPSIS":"351.338","LAUNCH_DATE":"2022-05-06","RCS_SIZE":"LARGE","SEMIMAJOR_AXIS":"6728.054","CLASSIFICATION_TYPE":"U","MEAN_MOTION_DDOT":"0.0000000000000","DECAY_DATE":null,"OBJECT_TYPE":"PAYLOAD","ARG_OF_PERICENTER":"18.9105","MEAN_ELEMENT_THEORY":"SGP4","TIME_SYSTEM":"UTC","CENTER_NAME":"EARTH","EPOCH":"2022-06-01T20:00:01.000224","ECCENTRICITY":"0.00021090","MEAN_ANOMALY":"1.7237","OBJECT_NAME":"STARLINK-3900","RA_OF_ASC_NODE":"135.5287","OBJECT_ID":"2022-049L","REF_FRAME":"TEME","TLE_LINE2":"2 52461  53.2161 135.5287 0002109  18.9105   1.7237 15.73144291  4332","NORAD_CAT_ID":"52461"},{"DECAY_DATE":null,"MEAN_MOTION_DDOT":"0.0000000000000","OBJECT_TYPE":"PAYLOAD","ARG_OF_PERICENTER":"29.6892","MEAN_ELEMENT_THEORY":"SGP4","TIME_SYSTEM":"UTC","PERIAPSIS":"347.963","APOAPSIS":"351.446","LAUNCH_DATE":"2022-05-06","SEMIMAJOR_AXIS":"6727.839","RCS_SIZE":"LARGE","CLASSIFICATION_TYPE":"U","OBJECT_NAME":"STARLINK-3903","RA_OF_ASC_NODE":"131.4546","OBJECT_ID":"2022-049M","REF_FRAME":"TEME","NORAD_CAT_ID":"52462","TLE_LINE2":"2 52462  53.2151 131.4546 0002588  29.6892 330.4274 15.73219560  4300","CENTER_NAME":"EARTH","EPOCH":"2022-06-02T15:43:05.526912","ECCENTRICITY":"0.00025880","MEAN_ANOMALY":"330.4274","TLE_LINE1":"1 52462U 22049M   22153.65492508  .00004255  00000-0  34704-4 0  9996","INCLINATION":"53.2151","COUNTRY_CODE":"US","PERIOD":"91.532","MEAN_MOTION_DOT":"0.00004255","GP_ID":"205214715","BSTAR":"0.00003470400000","MEAN_MOTION":"15.73219560","REV_AT_EPOCH":"430","ELEMENT_SET_NO":"999","FILE":"3477983","EPHEMERIS_TYPE":"0","SITE":"AFETR"},{"MEAN_MOTION":"15.73204660","GP_ID":"205128210","BSTAR":"-0.00011336000000","INCLINATION":"53.2162","TLE_LINE1":"1 52463U 22049N   22152.83334491 -.00016503  00000-0 -11336-3 0  9998","MEAN_MOTION_DOT":"-0.00016503","PERIOD":"91.533","COUNTRY_CODE":"US","ELEMENT_SET_NO":"999","SITE":"AFETR","EPHEMERIS_TYPE":"0","FILE":"3476255","REV_AT_EPOCH":"130","PERIAPSIS":"348.544","LAUNCH_DATE":"2022-05-06","SEMIMAJOR_AXIS":"6727.882","RCS_SIZE":"LARGE","CLASSIFICATION_TYPE":"U","APOAPSIS":"350.950","ARG_OF_PERICENTER":"21.4011","MEAN_ELEMENT_THEORY":"SGP4","MEAN_MOTION_DDOT":"0.0000000000000","DECAY_DATE":null,"OBJECT_TYPE":"PAYLOAD","TIME_SYSTEM":"UTC","EPOCH":"2022-06-01T20:00:01.000224","CENTER_NAME":"EARTH","ECCENTRICITY":"0.00017880","MEAN_ANOMALY":"0.4847","REF_FRAME":"TEME","OBJECT_ID":"2022-049N","OBJECT_NAME":"STARLINK-3885","RA_OF_ASC_NODE":"135.5262","NORAD_CAT_ID":"52463","TLE_LINE2":"2 52463  53.2162 135.5262 0001788  21.4011   0.4847 15.73204660  1309"},{"ECCENTRICITY":"0.00019430","MEAN_ANOMALY":"0.2804","CENTER_NAME":"EARTH","EPOCH":"2022-06-01T20:00:01.000224","NORAD_CAT_ID":"52464","TLE_LINE2":"2 52464  53.2162 135.5219 0001943  23.5021   0.2804 15.73150579  4335","REF_FRAME":"TEME","OBJECT_ID":"2022-049P","RA_OF_ASC_NODE":"135.5219","OBJECT_NAME":"STARLINK-3904","CLASSIFICATION_TYPE":"U","LAUNCH_DATE":"2022-05-06","RCS_SIZE":"LARGE","SEMIMAJOR_AXIS":"6728.036","APOAPSIS":"351.208","PERIAPSIS":"348.594","TIME_SYSTEM":"UTC","DECAY_DATE":null,"MEAN_MOTION_DDOT":"0.0000000000000","OBJECT_TYPE":"PAYLOAD","ARG_OF_PERICENTER":"23.5021","MEAN_ELEMENT_THEORY":"SGP4","EPHEMERIS_TYPE":"0","SITE":"AFETR","FILE":"3476800","ELEMENT_SET_NO":"999","REV_AT_EPOCH":"433","MEAN_MOTION":"15.73150579","BSTAR":"0.00063529000000","GP_ID":"205140696","MEAN_MOTION_DOT":"0.00089304","COUNTRY_CODE":"US","PERIOD":"91.536","INCLINATION":"53.2162","TLE_LINE1":"1 52464U 22049P   22152.83334491  .00089304  00000-0  63529-3 0  9997"},{"TLE_LINE1":"1 52465U 22049Q   22152.83334491 -.00017968  00000-0 -12381-3 0  9997","INCLINATION":"53.2158","COUNTRY_CODE":"US","PERIOD":"91.533","MEAN_MOTION_DOT":"-0.00017968","BSTAR":"-0.00012381000000","GP_ID":"205141159","MEAN_MOTION":"15.73209638","REV_AT_EPOCH":"433","ELEMENT_SET_NO":"999","FILE":"3476800","EPHEMERIS_TYPE":"0","SITE":"AFETR","MEAN_MOTION_DDOT":"0.0000000000000","DECAY_DATE":null,"OBJECT_TYPE":"PAYLOAD","ARG_OF_PERICENTER":"26.3057","MEAN_ELEMENT_THEORY":"SGP4","TIME_SYSTEM":"UTC","PERIAPSIS":"348.467","APOAPSIS":"350.999","RCS_SIZE":"LARGE","LAUNCH_DATE":"2022-05-06","SEMIMAJOR_AXIS":"6727.868","CLASSIFICATION_TYPE":"U","OBJECT_NAME":"STARLINK-3863","RA_OF_ASC_NODE":"135.5233","OBJECT_ID":"2022-049Q","REF_FRAME":"TEME","TLE_LINE2":"2 52465  53.2158 135.5233 0001882  26.3057 356.8393 15.73209638  4333","NORAD_CAT_ID":"52465","CENTER_NAME":"EARTH","EPOCH":"2022-06-01T20:00:01.000224","ECCENTRICITY":"0.00018820","MEAN_ANOMALY":"356.8393"},{"OBJECT_ID":"2022-049R","REF_FRAME":"TEME","RA_OF_ASC_NODE":"135.5170","OBJECT_NAME":"STARLINK-3840","TLE_LINE2":"2 52466  53.2156 135.5170 0002146  21.0153   4.6558 15.73181955  4337","NORAD_CAT_ID":"52466","EPOCH":"2022-06-01T20:00:01.000224","CENTER_NAME":"EARTH","MEAN_ANOMALY":"4.6558","ECCENTRICITY":"0.00021460","ARG_OF_PERICENTER":"21.0153","MEAN_ELEMENT_THEORY":"SGP4","DECAY_DATE":null,"MEAN_MOTION_DDOT":"0.0000000000000","OBJECT_TYPE":"PAYLOAD","TIME_SYSTEM":"UTC","PERIAPSIS":"348.368","LAUNCH_DATE":"2022-05-06","RCS_SIZE":"LARGE","SEMIMAJOR_AXIS":"6727.947","CLASSIFICATION_TYPE":"U","APOAPSIS":"351.255","REV_AT_EPOCH":"433","ELEMENT_SET_NO":"999","EPHEMERIS_TYPE":"0","SITE":"AFETR","FILE":"3476800","INCLINATION":"53.2156","TLE_LINE1":"1 52466U 22049R   22152.83334491  .00036742  00000-0  26525-3 0  9992","MEAN_MOTION_DOT":"0.00036742","PERIOD":"91.534","COUNTRY_CODE":"US","MEAN_MOTION":"15.73181955","BSTAR":"0.00026525000000","GP_ID":"205140697"},{"REV_AT_EPOCH":"130","ELEMENT_SET_NO":"999","EPHEMERIS_TYPE":"0","SITE":"AFETR","FILE":"3476255","INCLINATION":"53.2165","TLE_LINE1":"1 52467U 22049S   22152.83334491 -.00109839  00000-0 -78626-3 0  9992","MEAN_MOTION_DOT":"-0.00109839","PERIOD":"91.530","COUNTRY_CODE":"US","MEAN_MOTION":"15.73261298","GP_ID":"205127868","BSTAR":"-0.00078626000000","REF_FRAME":"TEME","OBJECT_ID":"2022-049S","RA_OF_ASC_NODE":"135.5191","OBJECT_NAME":"STARLINK-3873","NORAD_CAT_ID":"52467","TLE_LINE2":"2 52467  53.2165 135.5191 0002151  25.2769 359.7808 15.73261298  1301","EPOCH":"2022-06-01T20:00:01.000224","CENTER_NAME":"EARTH","MEAN_ANOMALY":"359.7808","ECCENTRICITY":"0.00021510","ARG_OF_PERICENTER":"25.2769","MEAN_ELEMENT_THEORY":"SGP4","DECAY_DATE":null,"MEAN_MOTION_DDOT":"0.0000000000000","OBJECT_TYPE":"PAYLOAD","TIME_SYSTEM":"UTC","PERIAPSIS":"348.138","RCS_SIZE":"LARGE","LAUNCH_DATE":"2022-05-06","SEMIMAJOR_AXIS":"6727.720","CLASSIFICATION_TYPE":"U","APOAPSIS":"351.033"}];
